[
  {
    "OBJECT_NAME": "STARLINK-5861",
    "OBJECT_ID": "23037H",
    "EPOCH": "2025-11-11T05:24:47.604672",
    "MEAN_MOTION": 14.98334178,
    "ECCENTRICITY": 0.0002927,
    "INCLINATION": 69.9995,
    "RA_OF_ASC_NODE": 243.0919,
    "ARG_OF_PERICENTER": 271.6019,
    "MEAN_ANOMALY": 88.4805,
    "EPHEMERIS_TYPE": 0,
    "CLASSIFICATION_TYPE": "U",
    "NORAD_CAT_ID": 55921,
    "ELEMENT_SET_NO": 999,
    "REV_AT_EPOCH": 14574,
    "BSTAR": 0.00027623999999999997,
    "MEAN_MOTION_DOT": 3.205e-05,
    "MEAN_MOTION_DDOT": 0.0,
    "TLE_LINE1": "1 55921U 23037H   25315.22555098  .00003205  00000+0  27624-3 0  9992",
    "TLE_LINE2": "2 55921  69.9995 243.0919 0002927 271.6019  88.4805 14.98334178145747",
    "COMMENT": "Grouped by shell and plane from TLE"
  },
  {
    "OBJECT_NAME": "STARLINK-5863",
    "OBJECT_ID": "23037J",
    "EPOCH": "2025-11-11T05:30:48.732480",
    "MEAN_MOTION": 14.9835223,
    "ECCENTRICITY": 0.0002641,
    "INCLINATION": 70.0005,
    "RA_OF_ASC_NODE": 243.1066,
    "ARG_OF_PERICENTER": 266.2964,
    "MEAN_ANOMALY": 93.7893,
    "EPHEMERIS_TYPE": 0,
    "CLASSIFICATION_TYPE": "U",
    "NORAD_CAT_ID": 55922,
    "ELEMENT_SET_NO": 999,
    "REV_AT_EPOCH": 14574,
    "BSTAR": 0.00030026000000000006,
    "MEAN_MOTION_DOT": 3.494e-05,
    "MEAN_MOTION_DDOT": 0.0,
    "TLE_LINE1": "1 55922U 23037J   25315.22973070  .00003494  00000+0  30026-3 0  9997",
    "TLE_LINE2": "2 55922  70.0005 243.1066 0002641 266.2964  93.7893 14.98352230145744",
    "COMMENT": "Grouped by shell and plane from TLE"
  },
  {
    "OBJECT_NAME": "STARLINK-5854",
    "OBJECT_ID": "23037K",
    "EPOCH": "2025-11-11T05:36:47.582784",
    "MEAN_MOTION": 14.98349,
    "ECCENTRICITY": 0.000278,
    "INCLINATION": 69.9995,
    "RA_OF_ASC_NODE": 243.1217,
    "ARG_OF_PERICENTER": 267.0218,
    "MEAN_ANOMALY": 93.0623,
    "EPHEMERIS_TYPE": 0,
    "CLASSIFICATION_TYPE": "U",
    "NORAD_CAT_ID": 55923,
    "ELEMENT_SET_NO": 999,
    "REV_AT_EPOCH": 14574,
    "BSTAR": 0.00024235,
    "MEAN_MOTION_DOT": 2.801e-05,
    "MEAN_MOTION_DDOT": 0.0,
    "TLE_LINE1": "1 55923U 23037K   25315.23388406  .00002801  00000+0  24235-3 0  9998",
    "TLE_LINE2": "2 55923  69.9995 243.1217 0002780 267.0218  93.0623 14.98349000145748",
    "COMMENT": "Grouped by shell and plane from TLE"
  },
  {
    "OBJECT_NAME": "STARLINK-5922",
    "OBJECT_ID": "23037M",
    "EPOCH": "2025-11-11T05:18:47.092032",
    "MEAN_MOTION": 14.98342864,
    "ECCENTRICITY": 0.0002383,
    "INCLINATION": 69.9999,
    "RA_OF_ASC_NODE": 243.0769,
    "ARG_OF_PERICENTER": 273.4326,
    "MEAN_ANOMALY": 86.6561,
    "EPHEMERIS_TYPE": 0,
    "CLASSIFICATION_TYPE": "U",
    "NORAD_CAT_ID": 55925,
    "ELEMENT_SET_NO": 999,
    "REV_AT_EPOCH": 14574,
    "BSTAR": 0.00030275,
    "MEAN_MOTION_DOT": 3.522e-05,
    "MEAN_MOTION_DDOT": 0.0,
    "TLE_LINE1": "1 55925U 23037M   25315.22137838  .00003522  00000+0  30275-3 0  9992",
    "TLE_LINE2": "2 55925  69.9999 243.0769 0002383 273.4326  86.6561 14.98342864145745",
    "COMMENT": "Grouped by shell and plane from TLE"
  },
  {
    "OBJECT_NAME": "STARLINK-5919",
    "OBJECT_ID": "23037P",
    "EPOCH": "2025-11-11T05:07:00.153408",
    "MEAN_MOTION": 14.9833648,
    "ECCENTRICITY": 0.0002011,
    "INCLINATION": 70.0013,
    "RA_OF_ASC_NODE": 243.0498,
    "ARG_OF_PERICENTER": 264.1445,
    "MEAN_ANOMALY": 95.9484,
    "EPHEMERIS_TYPE": 0,
    "CLASSIFICATION_TYPE": "U",
    "NORAD_CAT_ID": 55927,
    "ELEMENT_SET_NO": 999,
    "REV_AT_EPOCH": 14574,
    "BSTAR": 0.0,
    "MEAN_MOTION_DOT": -5.97e-06,
    "MEAN_MOTION_DDOT": 0.0,
    "TLE_LINE1": "1 55927U 23037P   25315.21319622 -.00000597  00000+0 -42247-4 0  9990",
    "TLE_LINE2": "2 55927  70.0013 243.0498 0002011 264.1445  95.9484 14.98336480145747",
    "COMMENT": "Grouped by shell and plane from TLE"
  },
  {
    "OBJECT_NAME": "STARLINK-5930",
    "OBJECT_ID": "23037Q",
    "EPOCH": "2025-11-11T05:00:45.260352",
    "MEAN_MOTION": 14.98334543,
    "ECCENTRICITY": 0.0002501,
    "INCLINATION": 69.9995,
    "RA_OF_ASC_NODE": 243.0325,
    "ARG_OF_PERICENTER": 269.5625,
    "MEAN_ANOMALY": 90.5248,
    "EPHEMERIS_TYPE": 0,
    "CLASSIFICATION_TYPE": "U",
    "NORAD_CAT_ID": 55928,
    "ELEMENT_SET_NO": 999,
    "REV_AT_EPOCH": 14574,
    "BSTAR": 7.9165e-05,
    "MEAN_MOTION_DOT": 8.52e-06,
    "MEAN_MOTION_DDOT": 0.0,
    "TLE_LINE1": "1 55928U 23037Q   25315.20885718  .00000852  00000+0  79165-4 0  9995",
    "TLE_LINE2": "2 55928  69.9995 243.0325 0002501 269.5625  90.5248 14.98334543145743",
    "COMMENT": "Grouped by shell and plane from TLE"
  },
  {
    "OBJECT_NAME": "STARLINK-5897",
    "OBJECT_ID": "23037T",
    "EPOCH": "2025-11-11T04:54:42.187680",
    "MEAN_MOTION": 14.98358983,
    "ECCENTRICITY": 0.0002999,
    "INCLINATION": 69.999,
    "RA_OF_ASC_NODE": 243.0178,
    "ARG_OF_PERICENTER": 276.9771,
    "MEAN_ANOMALY": 83.1047,
    "EPHEMERIS_TYPE": 0,
    "CLASSIFICATION_TYPE": "U",
    "NORAD_CAT_ID": 55931,
    "ELEMENT_SET_NO": 999,
    "REV_AT_EPOCH": 14574,
    "BSTAR": 0.00038762000000000003,
    "MEAN_MOTION_DOT": 4.538e-05,
    "MEAN_MOTION_DDOT": 0.0,
    "TLE_LINE1": "1 55931U 23037T   25315.20465495  .00004538  00000+0  38762-3 0  9997",
    "TLE_LINE2": "2 55931  69.9990 243.0178 0002999 276.9771  83.1047 14.98358983145742",
    "COMMENT": "Grouped by shell and plane from TLE"
  },
  {
    "OBJECT_NAME": "STARLINK-6296",
    "OBJECT_ID": "23078G",
    "EPOCH": "2025-11-11T04:48:46.063296",
    "MEAN_MOTION": 14.98332813,
    "ECCENTRICITY": 0.0002821,
    "INCLINATION": 69.9995,
    "RA_OF_ASC_NODE": 243.375,
    "ARG_OF_PERICENTER": 272.6246,
    "MEAN_ANOMALY": 87.459,
    "EPHEMERIS_TYPE": 0,
    "CLASSIFICATION_TYPE": "U",
    "NORAD_CAT_ID": 56773,
    "ELEMENT_SET_NO": 999,
    "REV_AT_EPOCH": 13591,
    "BSTAR": 0.00024168,
    "MEAN_MOTION_DOT": 2.792e-05,
    "MEAN_MOTION_DDOT": 0.0,
    "TLE_LINE1": "1 56773U 23078G   25315.20053314  .00002792  00000+0  24168-3 0  9995",
    "TLE_LINE2": "2 56773  69.9995 243.3750 0002821 272.6246  87.4590 14.98332813135917",
    "COMMENT": "Grouped by shell and plane from TLE"
  },
  {
    "OBJECT_NAME": "STARLINK-6292",
    "OBJECT_ID": "23078J",
    "EPOCH": "2025-11-11T06:18:53.719200",
    "MEAN_MOTION": 14.98332415,
    "ECCENTRICITY": 0.0002554,
    "INCLINATION": 70.0,
    "RA_OF_ASC_NODE": 243.1923,
    "ARG_OF_PERICENTER": 266.8543,
    "MEAN_ANOMALY": 93.2323,
    "EPHEMERIS_TYPE": 0,
    "CLASSIFICATION_TYPE": "U",
    "NORAD_CAT_ID": 56775,
    "ELEMENT_SET_NO": 999,
    "REV_AT_EPOCH": 13592,
    "BSTAR": 6.5863e-05,
    "MEAN_MOTION_DOT": 6.93e-06,
    "MEAN_MOTION_DDOT": 0.0,
    "TLE_LINE1": "1 56775U 23078J   25315.26312175  .00000693  00000+0  65863-4 0  9992",
    "TLE_LINE2": "2 56775  70.0000 243.1923 0002554 266.8543  93.2323 14.98332415135925",
    "COMMENT": "Grouped by shell and plane from TLE"
  },
  {
    "OBJECT_NAME": "STARLINK-6345",
    "OBJECT_ID": "23078Z",
    "EPOCH": "2025-11-11T04:18:43.693632",
    "MEAN_MOTION": 14.98315024,
    "ECCENTRICITY": 0.0002942,
    "INCLINATION": 69.9995,
    "RA_OF_ASC_NODE": 243.3063,
    "ARG_OF_PERICENTER": 266.6552,
    "MEAN_ANOMALY": 93.4271,
    "EPHEMERIS_TYPE": 0,
    "CLASSIFICATION_TYPE": "U",
    "NORAD_CAT_ID": 56790,
    "ELEMENT_SET_NO": 999,
    "REV_AT_EPOCH": 13591,
    "BSTAR": 0.0,
    "MEAN_MOTION_DOT": -1.528e-05,
    "MEAN_MOTION_DDOT": 0.0,
    "TLE_LINE1": "1 56790U 23078Z   25315.17967238 -.00001528  00000+0 -12031-3 0  9993",
    "TLE_LINE2": "2 56790  69.9995 243.3063 0002942 266.6552  93.4271 14.98315024135918",
    "COMMENT": "Grouped by shell and plane from TLE"
  },
  {
    "OBJECT_NAME": "STARLINK-6072",
    "OBJECT_ID": "23078AR",
    "EPOCH": "2025-11-11T05:06:45.992448",
    "MEAN_MOTION": 14.98328656,
    "ECCENTRICITY": 0.0002462,
    "INCLINATION": 70.0013,
    "RA_OF_ASC_NODE": 243.0185,
    "ARG_OF_PERICENTER": 270.7958,
    "MEAN_ANOMALY": 89.2919,
    "EPHEMERIS_TYPE": 0,
    "CLASSIFICATION_TYPE": "U",
    "NORAD_CAT_ID": 56806,
    "ELEMENT_SET_NO": 999,
    "REV_AT_EPOCH": 13591,
    "BSTAR": 0.0001211,
    "MEAN_MOTION_DOT": 1.352e-05,
    "MEAN_MOTION_DDOT": 0.0,
    "TLE_LINE1": "1 56806U 23078AR  25315.21303232  .00001352  00000+0  12110-3 0  9995",
    "TLE_LINE2": "2 56806  70.0013 243.0185 0002462 270.7958  89.2919 14.98328656135912",
    "COMMENT": "Grouped by shell and plane from TLE"
  },
  {
    "OBJECT_NAME": "STARLINK-6063",
    "OBJECT_ID": "23078AW",
    "EPOCH": "2025-11-11T06:48:54.222624",
    "MEAN_MOTION": 14.98338378,
    "ECCENTRICITY": 0.0003048,
    "INCLINATION": 69.9993,
    "RA_OF_ASC_NODE": 242.8616,
    "ARG_OF_PERICENTER": 270.351,
    "MEAN_ANOMALY": 89.73,
    "EPHEMERIS_TYPE": 0,
    "CLASSIFICATION_TYPE": "U",
    "NORAD_CAT_ID": 56811,
    "ELEMENT_SET_NO": 999,
    "REV_AT_EPOCH": 13593,
    "BSTAR": 0.00014059,
    "MEAN_MOTION_DOT": 1.585e-05,
    "MEAN_MOTION_DDOT": 0.0,
    "TLE_LINE1": "1 56811U 23078AW  25315.28396091  .00001585  00000+0  14059-3 0  9995",
    "TLE_LINE2": "2 56811  69.9993 242.8616 0003048 270.3510  89.7300 14.98338378135932",
    "COMMENT": "Grouped by shell and plane from TLE"
  },
  {
    "OBJECT_NAME": "STARLINK-30485",
    "OBJECT_ID": "23147H",
    "EPOCH": "2025-11-11T05:00:25.880832",
    "MEAN_MOTION": 15.02546013,
    "ECCENTRICITY": 0.000159,
    "INCLINATION": 43.0046,
    "RA_OF_ASC_NODE": 249.9946,
    "ARG_OF_PERICENTER": 272.1182,
    "MEAN_ANOMALY": 87.9478,
    "EPHEMERIS_TYPE": 0,
    "CLASSIFICATION_TYPE": "U",
    "NORAD_CAT_ID": 57920,
    "ELEMENT_SET_NO": 999,
    "REV_AT_EPOCH": 11879,
    "BSTAR": 0.0,
    "MEAN_MOTION_DOT": -7.93e-06,
    "MEAN_MOTION_DDOT": 0.0,
    "TLE_LINE1": "1 57920U 23147H   25315.20863288 -.00000793  00000+0 -43649-4 0  9993",
    "TLE_LINE2": "2 57920  43.0046 249.9946 0001590 272.1182  87.9478 15.02546013118799",
    "COMMENT": "Grouped by shell and plane from TLE"
  }
]